HAWK-6B                 
1 55324U 23011A   26161.95324857  .00004111  00000+0  17995-3 0  9995
2 55324  40.4991  28.4311 0003501 327.0265  33.0326 15.22872392186891
HAWK-6C                 
1 55326U 23011C   26160.37868959  .00004206  00000+0  18395-3 0  9998
2 55326  40.4982  34.4522 0004314 308.3612  51.6810 15.22867772186660
HAWK-6A                 
1 55327U 23011D   26162.34610284  .00004031  00000+0  17656-3 0  9999
2 55327  40.4992  24.6026 0003768 316.5498  43.5014 15.22877524186962
HAWK-7A                 
1 56191U 23054P   26162.67255767  .00002314  00000+0  89198-4 0  9996
2 56191  97.2705  50.1496 0004589  66.6093 293.5629 15.27299694176188
HAWK-7B                 
1 56193U 23054R   26162.67246730  .00005280  00000+0  20009-3 0  9998
2 56193  97.2743  48.4123 0003953  79.1606 281.0078 15.27306798176186
HAWK-7C                 
1 56200U 23054Y   26162.67236153  .00005192  00000+0  19680-3 0  9990
2 56200  97.2718  49.1826 0003981  71.3490 288.8182 15.27303353176186
